NORAD_CAT_ID,OBJECT_NAME,OBJECT_TYPE,EPOCH,MEAN_MOTION,ECCENTRICITY,INCLINATION,RA_OF_ASC_NODE,ARG_OF_PERICENTER,MEAN_ANOMALY,BSTAR,MEAN_MOTION_DOT,MEAN_MOTION_DDOT,TLE_LINE0,TLE_LINE1,TLE_LINE2,SEMIMAJOR_AXIS,PERIOD,APOGEE,PERIGEE,DECAYED
53886.0,STARLINK-5028,PAYLOAD,2023-02-25 20:09:23,15.08835635,0.0001222,53.2174,257.6784,96.0725,264.0406,-0.00013671,-2.463e-05,0.0,0 STARLINK-5028,1 53886U 22119A   23056.83986033 -.00002463  00000-0 -13671-3 0  9999,2 53886  53.2174 257.6784 0001222  96.0725 264.0406 15.08835635 24012,6917.894,95.438,540.604,538.913,0.0
53886.0,STARLINK-5028,PAYLOAD,2023-02-26 05:41:42,15.08839204,0.0001291,53.218,255.8947,97.3541,262.7598,-8.4862e-05,-1.638e-05,0.0,0 STARLINK-5028,1 53886U 22119A   23057.23729696 -.00001638  00000-0 -84862-4 0  9998,2 53886  53.2180 255.8947 0001291  97.3541 262.7598 15.08839204 24491,6917.883,95.438,540.641,538.855,0.0
53886.0,STARLINK-5028,PAYLOAD,2023-02-26 20:00:09,15.08848365,0.0001027,53.217,253.218,81.2801,278.8307,2.9855e-05,1.87e-06,0.0,0 STARLINK-5028,1 53886U 22119A   23057.83344638  .00000187  00000-0  29855-4 0  9990,2 53886  53.2170 253.2180 0001027  81.2801 278.8307 15.08848365 24167,6917.855,95.437,540.43,539.009,0.0
53886.0,STARLINK-5028,PAYLOAD,2023-02-27 11:54:01,15.08833509,0.0001766,53.217,250.244,96.9881,263.1312,0.00012533,1.707e-05,0.0,0 STARLINK-5028,1 53886U 22119A   23058.49585364  .00001707  00000-0  12533-3 0  9999,2 53886  53.2170 250.2440 0001766  96.9881 263.1312 15.08833509 24262,6917.9,95.438,540.987,538.544,0.0
53886.0,STARLINK-5028,PAYLOAD,2023-02-27 19:50:57,15.08840768,0.0001258,53.2172,248.7578,96.7065,263.4071,0.00014328,1.993e-05,0.0,0 STARLINK-5028,1 53886U 22119A   23058.82704915  .00001993  00000-0  14328-3 0  9992,2 53886  53.2172 248.7578 0001258  96.7065 263.4071 15.08840768 24738,6917.878,95.438,540.613,538.873,0.0
53886.0,STARLINK-5028,PAYLOAD,2023-02-28 05:23:16,15.08835164,0.0001055,53.2164,246.9729,78.2257,281.8853,5.8203e-05,6.39e-06,0.0,0 STARLINK-5028,1 53886U 22119A   23059.22449625  .00000639  00000-0  58203-4 0  9998,2 53886  53.2164 246.9729 0001055  78.2257 281.8853 15.08835164 24792,6917.895,95.438,540.49,539.03,0.0
53886.0,STARLINK-5028,PAYLOAD,2023-02-28 18:06:22,15.08826333,0.000133,53.2192,244.597,91.521,268.5935,-0.00014492,-2.593e-05,0.0,0 STARLINK-5028,1 53886U 22119A   23059.75443276 -.00002593  00000-0 -14492-3 0  9996,2 53886  53.2192 244.5970 0001330  91.5210 268.5935 15.08826333 24452,6917.922,95.438,540.707,538.867,0.0
53886.0,STARLINK-5028,PAYLOAD,2023-02-28 21:17:09,15.08829675,0.0001162,53.2174,243.9997,78.4999,281.6123,-0.00013694,-2.466e-05,0.0,0 STARLINK-5028,1 53886U 22119A   23059.88691058 -.00002466  00000-0 -13694-3 0  9995,2 53886  53.2174 243.9997 0001162  78.4999 281.6123 15.08829675 24890,6917.912,95.438,540.581,538.973,0.0
53886.0,STARLINK-5028,PAYLOAD,2023-03-01 14:46:22,15.08841116,0.000111,53.2176,240.7293,83.4658,276.646,8.5061e-06,-1.52e-06,0.0,0 STARLINK-5028,1 53886U 22119A   23060.61554183 -.00000152  00000-0  85061-5 0  9993,2 53886  53.2176 240.7293 0001110  83.4658 276.6460 15.08841116 24585,6917.877,95.437,540.51,538.974,0.0
53886.0,STARLINK-5028,PAYLOAD,2023-03-01 21:07:54,15.08846778,0.0001162,53.2172,239.5392,80.9836,279.1287,5.1743e-05,5.36e-06,0.0,0 STARLINK-5028,1 53886U 22119A   23060.88049671  .00000536  00000-0  51743-4 0  9997,2 53886  53.2172 239.5392 0001162  80.9836 279.1287 15.08846778 25040,6917.86,95.437,540.529,538.921,0.0
53886.0,STARLINK-5028,PAYLOAD,2023-03-02 17:47:56,15.0883715,0.0001354,53.2175,235.675,75.4585,284.6557,0.000193,2.785e-05,0.0,0 STARLINK-5028,1 53886U 22119A   23061.74162075  .00002785  00000-0  19300-3 0  9997,2 53886  53.2175 235.6750 0001354  75.4585 284.6557 15.08837150 24753,6917.889,95.438,540.691,538.817,0.0
53886.0,STARLINK-5028,PAYLOAD,2023-03-03 04:55:38,15.08837398,0.0001204,53.2166,233.5939,72.2509,287.8614,0.00012798,1.749e-05,0.0,0 STARLINK-5028,1 53886U 22119A   23062.20530338  .00001749  00000-0  12798-3 0  9993,2 53886  53.2166 233.5939 0001204  72.2509 287.8614 15.08837398 25242,6917.888,95.438,540.586,538.92,0.0
53886.0,STARLINK-5028,PAYLOAD,2023-03-03 20:49:28,15.08863128,0.0001295,53.2172,230.6196,76.733,283.3807,-1.1378e-05,-4.69e-06,0.0,0 STARLINK-5028,1 53886U 22119A   23062.86768910 -.00000469  00000-0 -11378-4 0  9998,2 53886  53.2172 230.6196 0001295  76.7330 283.3807 15.08863128 25349,6917.81,95.436,540.571,538.779,0.0
53886.0,STARLINK-5028,PAYLOAD,2023-03-04 12:43:20,15.08838409,0.0001323,53.216,227.6459,70.1076,290.0058,-9.8198e-06,-4.44e-06,0.0,0 STARLINK-5028,1 53886U 22119A   23063.53010346 -.00000444  00000-0 -98198-5 0  9995,2 53886  53.2160 227.6459 0001323  70.1076 290.0058 15.08838409 25449,6917.885,95.438,540.665,538.835,0.0
53886.0,STARLINK-5028,PAYLOAD,2023-03-04 15:54:07,15.08838482,0.000129,53.2167,227.0515,74.0871,286.0263,-8.1668e-06,-4.18e-06,0.0,0 STARLINK-5028,1 53886U 22119A   23063.66258334 -.00000418  00000-0 -81668-5 0  9995,2 53886  53.2167 227.0515 0001290  74.0871 286.0263 15.08838482 25042,6917.885,95.438,540.642,538.858,0.0
53886.0,STARLINK-5028,PAYLOAD,2023-03-04 20:40:15,15.08847208,0.0001286,53.218,226.1582,90.0834,270.0306,3.773e-05,3.13e-06,0.0,0 STARLINK-5028,1 53886U 22119A   23063.86129507  .00000313  00000-0  37730-4 0  9998,2 53886  53.2180 226.1582 0001286  90.0834 270.0306 15.08847208 25499,6917.858,95.437,540.613,538.834,0.0
53886.0,STARLINK-5028,PAYLOAD,2023-03-05 17:20:17,15.08840565,0.000129,53.2161,222.2923,70.9918,289.1214,-8.9817e-05,-1.717e-05,0.0,0 STARLINK-5028,1 53886U 22119A   23064.72242473 -.00001717  00000-0 -89817-4 0  9996,2 53886  53.2161 222.2923 0001290  70.9918 289.1214 15.08840565 25206,6917.879,95.438,540.636,538.851,0.0
53886.0,STARLINK-5028,PAYLOAD,2023-03-06 17:11:03,15.08850918,0.0001724,53.2181,217.8314,94.0005,266.1184,8.9946e-05,1.144e-05,0.0,0 STARLINK-5028,1 53886U 22119A   23065.71601343  .00001144  00000-0  89946-4 0  9996,2 53886  53.2181 217.8314 0001724  94.0005 266.1184 15.08850918 25358,6917.847,95.437,540.905,538.519,0.0
53886.0,STARLINK-5028,PAYLOAD,2023-03-07 02:43:24,15.08821704,0.0002325,53.217,216.0438,88.5866,271.5393,-0.0001426,-2.556e-05,0.0,0 STARLINK-5028,1 53886U 22119A   23066.11347985 -.00002556  00000-0 -14260-3 0  9996,2 53886  53.2170 216.0438 0002325  88.5866 271.5393 15.08821704 25415,6917.936,95.439,541.41,538.193,0.0
53886.0,STARLINK-5028,PAYLOAD,2023-03-07 18:37:14,15.08847636,0.0001347,53.2169,213.0745,89.5573,270.5573,0.00012773,1.746e-05,0.0,0 STARLINK-5028,1 53886U 22119A   23066.77585814  .00001746  00000-0  12773-3 0  9998,2 53886  53.2169 213.0745 0001347  89.5573 270.5573 15.08847636 25512,6917.857,95.437,540.654,538.79,0.0
53886.0,STARLINK-5028,PAYLOAD,2023-03-08 02:34:10,15.08840966,0.0001405,53.2176,211.5872,73.6608,286.4538,6.1981e-05,6.99e-06,0.0,0 STARLINK-5028,1 53886U 22119A   23067.10706384  .00000699  00000-0  61981-4 0  9995,2 53886  53.2176 211.5872 0001405  73.6608 286.4538 15.08840966 25563,6917.877,95.437,540.714,538.77,0.0
53886.0,STARLINK-5028,PAYLOAD,2023-03-08 18:28:02,15.08836439,0.0001543,53.2172,208.6127,77.5935,282.5229,-8.5139e-05,-1.643e-05,0.0,0 STARLINK-5028,1 53886U 22119A   23067.76947273 -.00001643  00000-0 -85139-4 0  9994,2 53886  53.2172 208.6127 0001543  77.5935 282.5229 15.08836439 25663,6917.891,95.438,540.824,538.689,0.0
53886.0,STARLINK-5028,PAYLOAD,2023-03-09 02:24:57,15.08858394,0.0001251,53.2209,207.1291,66.3874,293.7249,-0.00030147,-5.085e-05,0.0,0 STARLINK-5028,1 53886U 22119A   23068.10066623 -.00005085  00000-0 -30147-3 0  9996,2 53886  53.2209 207.1291 0001251  66.3874 293.7249 15.08858394 25710,6917.824,95.436,540.555,538.824,0.0
53886.0,STARLINK-5028,PAYLOAD,2023-03-09 13:32:38,15.08846404,0.0001302,53.2186,205.0457,110.8785,249.2346,0.00021166,3.083e-05,0.0,0 STARLINK-5028,1 53886U 22119A   23068.56433867  .00003083  00000-0  21166-3 0  9999,2 53886  53.2186 205.0457 0001302 110.8785 249.2346 15.08846404 26206,6917.861,95.437,540.627,538.825,0.0
53886.0,STARLINK-5028,PAYLOAD,2023-03-10 18:09:36,15.08839697,0.0001292,53.2155,199.6931,91.0196,269.0945,9.3478e-05,1.2e-05,0.0,0 STARLINK-5028,1 53886U 22119A   23069.75666684  .00001200  00000-0  93478-4 0  9991,2 53886  53.2155 199.6931 0001292  91.0196 269.0945 15.08839697 25964,6917.881,95.438,540.64,538.853,0.0
53886.0,STARLINK-5028,PAYLOAD,2023-03-11 02:06:32,15.08829765,0.0001411,53.2135,198.2047,90.6551,269.4603,2.6212e-06,-2.46e-06,0.0,0 STARLINK-5028,1 53886U 22119A   23070.08787646 -.00000246  00000-0  26212-5 0  9994,2 53886  53.2135 198.2047 0001411  90.6551 269.4603 15.08829765 26015,6917.912,95.438,540.753,538.801,0.0
53886.0,STARLINK-5028,PAYLOAD,2023-03-11 11:38:51,15.08835527,0.0001632,53.2146,196.4217,80.794,279.3237,-2.5113e-05,-6.88e-06,0.0,0 STARLINK-5028,1 53886U 22119A   23070.48531356 -.00000688  00000-0 -25113-4 0  9992,2 53886  53.2146 196.4217 0001632  80.7940 279.3237 15.08835527 26491,6917.894,95.438,540.888,538.63,0.0
53886.0,STARLINK-5028,PAYLOAD,2023-03-11 18:00:22,15.08847774,0.0001399,53.2201,195.2357,106.8791,253.2354,5.6124e-05,6.06e-06,0.0,0 STARLINK-5028,1 53886U 22119A   23070.75026502  .00000606  00000-0  56124-4 0  9998,2 53886  53.2201 195.2357 0001399 106.8791 253.2354 15.08847774 26116,6917.857,95.437,540.689,538.754,0.0
53886.0,STARLINK-5028,PAYLOAD,2023-03-12 09:54:17,15.08803644,0.0001263,53.216,192.2574,101.8047,258.3087,-8.8833e-05,-1.7e-05,0.0,0 STARLINK-5028,1 53886U 22119A   23071.41270277 -.00001700  00000-0 -88833-4 0  9992,2 53886  53.2160 192.2574 0001263 101.8047 258.3087 15.08803644 26215,6917.992,95.44,540.73,538.983,0.0
53886.0,STARLINK-5028,PAYLOAD,2023-03-12 11:29:40,15.08811915,0.0001708,53.2176,191.9647,88.1438,271.9749,-7.4084e-05,-1.466e-05,0.0,0 STARLINK-5028,1 53886U 22119A   23071.47894031 -.00001466  00000-0 -74084-4 0  9990,2 53886  53.2176 191.9647 0001708  88.1438 271.9749 15.08811915 26221,6917.966,95.439,541.013,538.65,0.0
